*******************************************************************************
JPL/HORIZONS             4216 Neunkirchen (1988 AF5)       2023-Sep-04 11:27:57
Rec #:    4216 (+COV) Soln.date: 2023-Aug-23_16:57:14   # obs: 3097 (1974-2023)
 
IAU76/J2000 helio. ecliptic osc. elements (au, days, deg., period=Julian yrs):
 
  EPOCH=  2457685.5 ! 2016-Oct-24.00 (TDB)         Residual RMS= .26056
   EC= .1706225415138659   QR= 1.954377177716703   TP= 2458172.7355602873
   OM= 202.5880932482103   W=  49.63877685002563   IN= 4.456834780257252
   A= 2.356438745374194    MA= 227.2425754300953   ADIST= 2.758500313031684
   PER= 3.61737            N= .272470721           ANGMOM= .026019208
   DAN= 2.06019            DDN= 2.57204            L= 252.1412263
   B= 3.3945664            MOID= .94368702         TP= 2018-Feb-23.2355602873
 
Asteroid physical parameters (km, seconds, rotational period in hours):
   GM= n.a.                RAD= 1.183              ROTPER= n.a.
   H= 14.18                G= .150                 B-V= n.a.
                           ALBEDO= .601            STYP= n.a.

ASTEROID comments: 
1: soln ref.= JPL#52, OCC=0
2: source=ORB
*******************************************************************************


*******************************************************************************
Ephemeris / API_USER Mon Sep  4 11:27:57 2023 Pasadena, USA      / Horizons
*******************************************************************************
Target body name: 4216 Neunkirchen (1988 AF5)     {source: JPL#52}
Center body name: Solar System Barycenter (0)     {source: DE441}
Center-site name: BODY CENTER
*******************************************************************************
Start time      : A.D. 2023-Aug-12 00:00:00.0000 TDB
Stop  time      : A.D. 2023-Aug-13 00:00:00.0000 TDB
Step-size       : 2880 minutes
*******************************************************************************
Center geodetic : 0.0, 0.0, 0.0                   {E-lon(deg),Lat(deg),Alt(km)}
Center cylindric: 0.0, 0.0, 0.0                   {E-lon(deg),Dxy(km),Dz(km)}
Center radii    : (undefined)
Small perturbers: Yes                             {source: SB441-N16}
Output units    : KM-S
Calendar mode   : Mixed Julian/Gregorian
Output type     : GEOMETRIC cartesian states
Output format   : 2 (position and velocity)
Reference frame : Ecliptic of J2000.0
*******************************************************************************
Initial IAU76/J2000 heliocentric ecliptic osculating elements (au, days, deg.):
  EPOCH=  2457685.5 ! 2016-Oct-24.00 (TDB)         Residual RMS= .26056        
   EC= .1706225415138659   QR= 1.954377177716703   TP= 2458172.7355602873      
   OM= 202.5880932482103   W=  49.63877685002563   IN= 4.456834780257252       
  Equivalent ICRF heliocentric cartesian coordinates (au, au/d):
   X=-7.762606755138537E-01  Y= 2.409028814897920E+00  Z= 8.201573388643912E-01
  VX=-9.026320236061610E-03 VY=-3.604300106779946E-03 VZ=-1.549467732664592E-03
Asteroid physical parameters (km, seconds, rotational period in hours):        
   GM= n.a.                RAD= 1.183              ROTPER= n.a.                
   H= 14.18                G= .150                 B-V= n.a.                   
                           ALBEDO= .601            STYP= n.a.                  
*******************************************************************************
JDTDB
   X     Y     Z
   VX    VY    VZ
*******************************************************************************
$$SOE
2460168.500000000 = A.D. 2023-Aug-12 00:00:00.0000 TDB 
 X = 1.081897177073466E+08 Y = 3.970567925488275E+08 Z =-2.533214275000213E+07
 VX=-1.575777129166301E+01 VY= 4.135982574874775E+00 VZ=-7.706854829784170E-01
$$EOE
*******************************************************************************
 
TIME

  Barycentric Dynamical Time ("TDB" or T_eph) output was requested. This
continuous coordinate time is equivalent to the relativistic proper time
of a clock at rest in a reference frame co-moving with the solar system
barycenter but outside the system's gravity well. It is the independent
variable in the solar system relativistic equations of motion.

  TDB runs at a uniform rate of one SI second per second and is independent
of irregularities in Earth's rotation.
 
CALENDAR SYSTEM

  Mixed calendar mode was active such that calendar dates after AD 1582-Oct-15
(if any) are in the modern Gregorian system. Dates prior to 1582-Oct-5 (if any)
are in the Julian calendar system, which is automatically extended for dates
prior to its adoption on 45-Jan-1 BC.  The Julian calendar is useful for
matching historical dates. The Gregorian calendar more accurately corresponds
to the Earth's orbital motion and seasons. A "Gregorian-only" calendar mode is
available if such physical events are the primary interest.

REFERENCE FRAME AND COORDINATES

  Ecliptic at the standard reference epoch

    Reference epoch: J2000.0
    X-Y plane: adopted Earth orbital plane at the reference epoch
               Note: IAU76 obliquity of 84381.448 arcseconds wrt ICRF X-Y plane
    X-axis   : ICRF
    Z-axis   : perpendicular to the X-Y plane in the directional (+ or -) sense
               of Earth's north pole at the reference epoch.

  Symbol meaning:

    JDTDB    Julian Day Number, Barycentric Dynamical Time
      X      X-component of position vector (km)
      Y      Y-component of position vector (km)
      Z      Z-component of position vector (km)
      VX     X-component of velocity vector (km/sec)                           
      VY     Y-component of velocity vector (km/sec)                           
      VZ     Z-component of velocity vector (km/sec)                           

ABERRATIONS AND CORRECTIONS

 Geometric state vectors have NO corrections or aberrations applied.

Computations by ...

    Solar System Dynamics Group, Horizons On-Line Ephemeris System
    4800 Oak Grove Drive, Jet Propulsion Laboratory
    Pasadena, CA  91109   USA

    General site: https://ssd.jpl.nasa.gov/
    Mailing list: https://ssd.jpl.nasa.gov/email_list.html
    System news : https://ssd.jpl.nasa.gov/horizons/news.html
    User Guide  : https://ssd.jpl.nasa.gov/horizons/manual.html
    Connect     : browser        https://ssd.jpl.nasa.gov/horizons/app.html#/x
                  API            https://ssd-api.jpl.nasa.gov/doc/horizons.html
                  command-line   telnet ssd.jpl.nasa.gov 6775
                  e-mail/batch   https://ssd.jpl.nasa.gov/ftp/ssd/hrzn_batch.txt
                  scripts        https://ssd.jpl.nasa.gov/ftp/ssd/SCRIPTS
    Author      : Jon.D.Giorgini@jpl.nasa.gov
*******************************************************************************
